COSMOS 2251 DEB         
1 34033U 93036HU  17345.90345069  .00000759  00000-0  23568-3 0  9998
2 34033  74.0074 247.3394 0068958 235.2157 255.8017 14.41505291461304
